TURKSAT 3A              
1 33056U 08030B   18155.89536781  .00000146  00000-0  00000-0 0  9996
2 33056   0.0493  85.8251 0005477 354.3330 177.4537  1.00274264 22934
INTELSAT 25 (IS-25)     
1 33153U 08034A   18156.38261686 -.00000223  00000-0  00000+0 0  9998
2 33153   0.0151 317.1997 0000757  81.6967 321.1091  1.00269031 36229
BADR-6                  
1 33154U 08034B   18156.49077743  .00000146  00000-0  00000+0 0  9993
2 33154   0.0535  28.0021 0005984  50.2025  18.3488  1.00274574 36331
ECHOSTAR 11             
1 33207U 08035A   18155.60287322 -.00000056  00000-0  00000-0 0  9993
2 33207   0.0420 103.7517 0002769 330.1771 286.1065  1.00272153 21836
SUPERBIRD-C2            
1 33274U 08038A   18156.15537861 -.00000250  00000-0  00000+0 0  9992
2 33274   0.0151  23.0539 0001888  66.5069   3.8670  1.00271650 35966
AMC-21                  
1 33275U 08038B   18155.81021619  .00000037  00000-0  00000+0 0  9996
2 33275   0.0144 356.7773 0002425  80.6985 342.4935  1.00271931 36045
INMARSAT 4-F3           
1 33278U 08039A   18155.89175187 -.00000139  00000-0  00000-0 0  9993
2 33278   3.0240   5.0664 0002734  72.6930  38.5553  1.00271250 17160
NIMIQ 4                 
1 33373U 08044A   18156.15396591 -.00000219  00000-0  00000+0 0  9997
2 33373   0.0091  33.6278 0002343  41.2662 152.0659  1.00270966 35415
GALAXY 19 (G-19)        
1 33376U 08045A   18155.56692818 -.00000139  00000-0  00000-0 0  9998
2 33376   0.0117 297.7017 0003628 146.5314 275.8132  1.00272389 35524
VENESAT-1               
1 33414U 08055A   18156.18285789 -.00000237  00000-0  00000+0 0  9994
2 33414   0.0374 128.0268 0001865 334.2464 139.0889  1.00273673 35133
ASTRA 1M                
1 33436U 08057A   18156.13051639  .00000121  00000-0  00000+0 0  9991
2 33436   0.0116 283.5834 0004954 186.8905 209.2201  1.00271379 35050
CIEL-2                  
1 33453U 08063A   18155.74199235  .00000059  00000-0  00000-0 0  9999
2 33453   0.0211 292.7859 0003290 157.3783 301.2216  1.00272593 34724
EUTELSAT HOT BIRD 13C   
1 33459U 08065A   18155.26223744  .00000087  00000-0  00000-0 0  9998
2 33459   0.0596  53.1737 0006097  31.2276 275.6729  1.00273889 17920
EUTELSAT 48D            
1 33460U 08065B   18155.85327196  .00000124  00000-0  00000-0 0  9993
2 33460   0.0858  62.3204 0002067  28.4151 157.7564  1.00274317 34593
FENGYUN 2E              
1 33463U 08066A   18156.07224284 -.00000203  00000-0  00000+0 0  9994
2 33463   2.8557  68.7948 0003940 235.0433  62.5132  1.00270761 34668
EXPRESS-AM44            
1 33595U 09007A   18156.48789041 -.00000087  00000-0  00000+0 0  9998
2 33595   0.0155 245.4119 0000515 197.5283 335.5600  1.00271684 34143
NSS-9                   
1 33749U 09008A   18156.24344751  .00000073  00000-0  00000+0 0  9993
2 33749   0.0182   4.1791 0002276  82.8198  77.3223  1.00271472 34144
EUTELSAT 33E            
1 33750U 09008B   18156.19424330  .00000157  00000-0  00000+0 0  9994
2 33750   0.0254 359.0588 0002816 112.4262 245.0921  1.00272501 34181
TELSTAR 11N             
1 34111U 09009A   18156.19097083 -.00000250  00000-0  00000+0 0  9993
2 34111   0.0170 331.1202 0002431 101.9981 211.6537  1.00270486 33998
EUTELSAT 10A            
1 34710U 09016A   18156.21199266  .00000069  00000-0  00000+0 0  9992
2 34710   0.0653  11.1752 0004961  63.3948 265.3137  1.00271528 33549
SES-7 (PROTOSTAR 2)     
1 34941U 09027A   18155.93767273 -.00000344  00000-0  00000-0 0  9995
2 34941   0.0411  79.4544 0000515 247.1571  12.5139  1.00271605 33212
MEASAT-3A               
1 35362U 09032A   18155.04462731 -.00000242  00000-0  00000-0 0  9999
2 35362   0.0486 237.0892 0001048 267.6206 215.3015  1.00271537 32820
GOES 14                 
1 35491U 09033A   18155.58684072 -.00000093  00000-0  00000-0 0  9990
2 35491   0.2366 104.5123 0005969 120.6563 134.7871  1.00271819 32734
SIRIUS FM-5             
1 35493U 09034A   18155.78521656 -.00000199  00000-0  00000-0 0  9990
2 35493   0.0142 329.4005 0001322  54.4795  65.8240  1.00272442 17306
TERRESTAR-1             
1 35496U 09035A   18155.58571778 -.00000057  00000-0  00000-0 0  9995
2 35496   2.6530 352.9224 0002826  81.3974 278.4989  1.00271847 32734
ASIASAT 5               
1 35696U 09042A   18156.00855639 -.00000307  00000-0  00000+0 0  9991
2 35696   0.0089 300.6761 0001753 101.9878 314.3233  1.00274143 32243
JCSAT-RA (JCSAT-12)     
1 35755U 09044A   18155.94098545 -.00000344  00000-0  00000+0 0  9997
2 35755   0.0744  69.9695 0000971  35.8806 254.1657  1.00271304 32242
OPTUS D3                
1 35756U 09044B   18156.15773398 -.00000146  00000-0  00000+0 0  9998
2 35756   0.0614  66.5144 0003863 355.0536  44.7660  1.00271764 32215
PALAPA D                
1 35812U 09046A   18155.98255325 -.00000357  00000-0  00000+0 0  9992
2 35812   0.0097 356.9150 0002428 105.6208 257.4967  1.00271044 32255
NIMIQ 5                 
1 35873U 09050A   18155.78035736 -.00000256  00000-0  00000-0 0  9993
2 35873   0.0548 101.8770 0002806 341.5456  17.9708  1.00271887 31946
AMAZONAS 2              
1 35942U 09054A   18155.91250631 -.00000281  00000-0  00000-0 0  9990
2 35942   0.0533 131.4425 0004700 328.0620  61.3153  1.00273517 31760
COMSATBW-1              
1 35943U 09054B   18156.49819248  .00000026  00000-0  00000+0 0  9995
2 35943   0.0485  92.8610 0002991 347.6953  55.6719  1.00272980 31845
NSS-12                  
1 36032U 09058A   18155.14028771  .00000071  00000-0  00000+0 0  9993
2 36032   0.0312  53.9629 0002803  17.9786 288.0935  1.00271645 31507
THOR 6                  
1 36033U 09058B   18155.81307487 -.00000009  00000-0  00000-0 0  9995
2 36033   0.0168 246.4657 0002063 196.4447 102.1519  1.00272160 31600
INTELSAT 14 (IS-14)     
1 36097U 09064A   18155.42286810 -.00000273  00000-0  00000-0 0  9998
2 36097   0.0147  27.9226 0003010  56.9085 275.2079  1.00269920 31278
EUTELSAT 36B            
1 36101U 09065A   18156.20511205  .00000157  00000-0  00000+0 0  9990
2 36101   0.0653   8.3024 0005059  71.2834 283.7396  1.00271357 31398
INTELSAT 15 (IS-15)     
1 36106U 09067A   18156.50264150 -.00000184  00000-0  00000+0 0  9995
2 36106   0.0112 343.4798 0002449 117.9028  58.5928  1.00271307 31188
DIRECTV 12              
1 36131U 09075A   18156.47560307 -.00000101  00000-0  00000+0 0  9990
2 36131   0.0417 158.0104 0000218 282.9176 241.3495  1.00270428 30963
BEIDOU 3                
1 36287U 10001A   18156.24374334 -.00000282  00000-0  00000+0 0  9991
2 36287   1.4830   1.5146 0003802 148.0827 331.8311  1.00274095 30757
RADUGA-1M 2             
1 36358U 10002A   18156.14360177 -.00000183  00000-0  00000+0 0  9990
2 36358   0.0203 274.1166 0002964 186.1884 289.9193  1.00272339 30591
SDO                     
1 36395U 10005A   18155.46022963 -.00000041  00000-0  00000-0 0  9990
2 36395  29.1939 134.1591 0000978  17.4282 165.2067  1.00272244 30634
INTELSAT 16 (IS-16)     
1 36397U 10006A   18155.46537655 -.00000245  00000-0  00000+0 0  9997
2 36397   0.0223  64.2572 0002239  12.5584 267.3819  1.00271925 30303
GOES 15                 
1 36411U 10008A   18154.67442317  .00000086  00000-0  00000-0 0  9991
2 36411   0.2094 104.3815 0002181  38.9663 216.6707  1.00283872 30240
ECHOSTAR 14             
1 36499U 10010A   18155.88756454  .00000001  00000-0  00000-0 0  9991
2 36499   0.0144 303.9463 0002701 128.8491  21.1004  1.00272093 17159
SES-1                   
1 36516U 10016A   18156.25760205 -.00000113  00000-0  00000+0 0  9992
2 36516   0.0171  27.6738 0002183  43.3335 174.3745  1.00272241 29719
ASTRA 3B                
1 36581U 10021A   18156.19424330  .00000138  00000-0  00000+0 0  9995
2 36581   0.0426 321.7961 0002956 116.5263 268.6645  1.00272971 29234
COMSATBW-2              
1 36582U 10021B   18156.12929508  .00000089  00000-0  00000+0 0  9991
2 36582   0.0194 296.6034 0002696 154.2820 222.3365  1.00270262 29560
BEIDOU 4                
1 36590U 10024A   18156.27962663 -.00000354  00000-0  00000+0 0  9994
2 36590   1.3500  17.0898 0008966 356.2549  91.4057  1.00274178 29366
BADR-5                  
1 36592U 10025A   18156.13182493  .00000146  00000-0  00000+0 0  9995
2 36592   0.0370 145.1080 0003450 326.4098 215.4460  1.00274619 29474
COMS 1                  
1 36744U 10032A   18155.86505767 -.00000343  00000-0  00000-0 0  9995
2 36744   0.0416 143.2622 0000903 311.5200 238.0998  1.00271691 21662
ARABSAT-5A              
1 36745U 10032B   18156.19424330  .00000154  00000-0  00000+0 0  9997
2 36745   0.0512   7.8771 0003096  66.4698 279.6349  1.00270178 29212
ECHOSTAR 15             
1 36792U 10034A   18156.47922696 -.00000280  00000-0  00000+0 0  9991
2 36792   0.0094 319.3217 0001874 107.6138 297.8026  1.00273428 28982
NILESAT 201             
1 36830U 10037A   18155.81293003 -.00000057  00000-0  00000+0 0  9999
2 36830   0.0568 148.3021 0006220 287.8186 102.7379  1.00271612 28863
RASCOM-QAF 1R           
1 36831U 10037B   18155.29009456  .00000018  00000-0  00000-0 0  9996
2 36831   0.0200 357.4336 0004763  75.5256 287.0930  1.00269252 28888
CHINASAT 6A (ZX 6A)     
1 37150U 10042A   18155.93852293 -.00000353  00000-0  00000-0 0  9996
2 37150   0.0134  53.1742 0001079  71.9314 231.1305  1.00270223 28473
QZS-1 (MICHIBIKI)       
1 37158U 10045A   18156.31600442 -.00000085  00000-0  00000+0 0  9998
2 37158  41.0686 154.2116 0757412 270.3957  80.6833  1.00266450 28293
XM-5                    
1 37185U 10053A   18155.78521656 -.00000204  00000-0  00000+0 0  9999
2 37185   0.0152 323.2345 0001645 110.3902  17.0227  1.00271597 28021
BSAT-3B                 
1 37207U 10056B   18156.56004896 -.00000349  00000-0  00000+0 0  9996
2 37207   0.0553 313.8626 0002322  58.0386 193.5245  1.00272791 27852
BEIDOU 6                
1 37210U 10057A   18155.87142590 -.00000112  00000-0  00000-0 0  9997
2 37210   0.8708  51.8552 0001749 249.0577  66.0274  1.00271765 27866
